{
  "norad_id": 58217,
  "name": "STARLINK-30818",
  "history": [
    {
      "epoch": "2026-03-28T22:03:57.868128",
      "apogee_km": 486.58688831283143,
      "perigee_km": 484.44405601102244,
      "latitude_deg": -33.827303676864275,
      "longitude_deg": 89.96429791999981,
      "semi_major_axis_km": 6863.652472161926,
      "eccentricity": 0.0001561,
      "inclination_deg": 43.0052,
      "raan_deg": 85.3524,
      "arg_perigee_deg": 267.3701,
      "mean_anomaly_deg": 92.6971,
      "mean_motion_rev_day": 15.26756696
    }
  ]
}