{"fetched_at":"2026-03-29T16:36:15Z","count":15609,"tles":[{"name":"STARLINK-30818","line1":"1 58217U 23170M   26087.91941977  .00002212  00000+0  92075-4 0  9999","line2":"2 58217  43.0052  85.3524 0001561 267.3701  92.6971 15.26756696133245","category":"Starlink"}]}